OBJECT B                
1 51825U 22019B   26100.52288627  .00072000  00000+0  69981-3 0  9998
2 51825  97.3488 189.1770 0004785  16.9347 343.2072 15.66067972229147
